[{"OBJECT_NAME":"STARLINK-5118","OBJECT_ID":"2022-125AD","EPOCH":"2026-03-09T16:39:19.700064","MEAN_MOTION":15.08841557,"ECCENTRICITY":0.00011815,"INCLINATION":53.2175,"RA_OF_ASC_NODE":204.0339,"ARG_OF_PERICENTER":81.8503,"MEAN_ANOMALY":278.2624,"EPHEMERIS_TYPE":0,"CLASSIFICATION_TYPE":"U","NORAD_CAT_ID":53991,"ELEMENT_SET_NO":999,"REV_AT_EPOCH":18959,"BSTAR":3.2190284e-5,"MEAN_MOTION_DOT":2.25e-6,"MEAN_MOTION_DDOT":0},{"OBJECT_NAME":"CZ-4B DEB","OBJECT_ID":"2008-053M","EPOCH":"2026-03-05T07:18:48.921696","MEAN_MOTION":15.08195439,"ECCENTRICITY":0.0017401,"INCLINATION":97.8281,"RA_OF_ASC_NODE":90.6528,"ARG_OF_PERICENTER":258.7901,"MEAN_ANOMALY":101.1371,"EPHEMERIS_TYPE":0,"CLASSIFICATION_TYPE":"U","NORAD_CAT_ID":44593,"ELEMENT_SET_NO":999,"REV_AT_EPOCH":67199,"BSTAR":0.00019653,"MEAN_MOTION_DOT":2.982e-5,"MEAN_MOTION_DDOT":0}]
